DELTA 2 R/B(1)          
1 20453U 90008B   25365.02618281  .00072340  00000+0  10991-2 0  9997
2 20453  35.6062 262.3093 0107327 344.1232  15.6150 15.46942304915463
COSMOS 2058             
1 20465U 90010A   25365.30580095  .00007445  00000+0  44775-3 0  9997
2 20465  82.4715 114.7699 0009934 205.2364 154.8382 15.10673335931918
SL-14 R/B               
1 20466U 90010B   25365.29442403  .00000893  00000+0  10540-3 0  9999
2 20466  82.5029 331.6202 0020247 160.9585 199.2392 14.83492225918342
SL-14 R/B               
1 20511U 90018B   25365.24639038  .00000895  00000+0  10962-3 0  9995
2 20511  82.5221 287.0687 0015457 321.7618  38.2499 14.82069269912441
HST                     
1 20580U 90037B   25365.07783502  .00010772  00000+0  37137-3 0  9997
2 20580  28.4654 147.6437 0002613  77.2638 282.8249 15.28303086762807
SL-16 R/B               
1 20625U 90046B   25365.26734441  .00000190  00000+0  12257-3 0  9995
2 20625  70.9992  81.6129 0012570  41.8942 318.3140 14.14998577838715
COSMOS 2084             
1 20663U 90055A   25364.97190926  .00005146  00000+0  37023-3 0  9992
2 20663  62.7892 209.8650 0028724 177.3412 182.7847 15.05137921925974
SL-6 R/B(2)             
1 20666U 90055D   25364.72945783  .00004234  00000+0  32540-3 0  9993
2 20666  62.7833 128.2850 0014867 320.7726  39.2295 15.03173633927820
SL-8 R/B                
1 20775U 90078B   25365.24526731  .00019443  00000+0  59781-3 0  9999
2 20775  82.9056 312.7376 0369504 243.5673 112.7195 14.86599483799120
SL-8 R/B                
1 21088U 91006B   25365.13874862  .00000062  00000+0  46720-4 0  9995
2 21088  82.9409 221.0270 0021506 225.2661 249.5693 13.77492806754635
OKEAN-3                 
1 21397U 91039A   25365.17568732  .00005187  00000+0  37048-3 0  9999
2 21397  82.5162  43.2003 0013782 196.7412 163.3362 15.04242747854738
COSMOS 2151             
1 21422U 91042A   25365.23828723  .00003759  00000+0  30173-3 0  9993
2 21422  82.4967 149.6760 0011325 292.9665  67.0363 14.99773681852930
