CCSDS_OMM_VERS = 2.0
CREATION_DATE  = 
ORIGINATOR     = 

OBJECT_NAME    = DELTA 2 R/B(1)
OBJECT_ID      = 1990-008B
CENTER_NAME    = EARTH
REF_FRAME      = TEME
TIME_SYSTEM    = UTC
MEAN_ELEMENT_THEORY = SGP/SGP4

EPOCH          = 2025-12-31T00:37:42.194784
MEAN_MOTION    = 15.46942304
ECCENTRICITY   = .01073276
INCLINATION    = 35.6062
RA_OF_ASC_NODE = 262.3093
ARG_OF_PERICENTER = 344.1232
MEAN_ANOMALY   = 15.6150

EPHEMERIS_TYPE = 0
CLASSIFICATION_TYPE = U
NORAD_CAT_ID   = 20453
ELEMENT_SET_NO = 999
REV_AT_EPOCH   = 91546
BSTAR          = .10991142E-2
MEAN_MOTION_DOT = .7234E-3
MEAN_MOTION_DDOT = 0

CCSDS_OMM_VERS = 2.0
CREATION_DATE  = 
ORIGINATOR     = 

OBJECT_NAME    = COSMOS 2058
OBJECT_ID      = 1990-010A
CENTER_NAME    = EARTH
REF_FRAME      = TEME
TIME_SYSTEM    = UTC
MEAN_ELEMENT_THEORY = SGP/SGP4

EPOCH          = 2025-12-31T07:20:21.202080
MEAN_MOTION    = 15.10673335
ECCENTRICITY   = .00099344
INCLINATION    = 82.4715
RA_OF_ASC_NODE = 114.7699
ARG_OF_PERICENTER = 205.2364
MEAN_ANOMALY   = 154.8382

EPHEMERIS_TYPE = 0
CLASSIFICATION_TYPE = U
NORAD_CAT_ID   = 20465
ELEMENT_SET_NO = 999
REV_AT_EPOCH   = 93191
BSTAR          = .44774524E-3
MEAN_MOTION_DOT = .7445E-4
MEAN_MOTION_DDOT = 0

CCSDS_OMM_VERS = 2.0
CREATION_DATE  = 
ORIGINATOR     = 

OBJECT_NAME    = SL-14 R/B
OBJECT_ID      = 1990-010B
CENTER_NAME    = EARTH
REF_FRAME      = TEME
TIME_SYSTEM    = UTC
MEAN_ELEMENT_THEORY = SGP/SGP4

EPOCH          = 2025-12-31T07:03:58.236192
MEAN_MOTION    = 14.83492225
ECCENTRICITY   = .00202473
INCLINATION    = 82.5029
RA_OF_ASC_NODE = 331.6202
ARG_OF_PERICENTER = 160.9585
MEAN_ANOMALY   = 199.2392

EPHEMERIS_TYPE = 0
CLASSIFICATION_TYPE = U
NORAD_CAT_ID   = 20466
ELEMENT_SET_NO = 999
REV_AT_EPOCH   = 91834
BSTAR          = .10540026E-3
MEAN_MOTION_DOT = .893E-5
MEAN_MOTION_DDOT = 0

CCSDS_OMM_VERS = 2.0
CREATION_DATE  = 
ORIGINATOR     = 

OBJECT_NAME    = SL-14 R/B
OBJECT_ID      = 1990-018B
CENTER_NAME    = EARTH
REF_FRAME      = TEME
TIME_SYSTEM    = UTC
MEAN_ELEMENT_THEORY = SGP/SGP4

EPOCH          = 2025-12-31T05:54:48.128832
MEAN_MOTION    = 14.82069269
ECCENTRICITY   = .00154575
INCLINATION    = 82.5221
RA_OF_ASC_NODE = 287.0687
ARG_OF_PERICENTER = 321.7618
MEAN_ANOMALY   = 38.2499

EPHEMERIS_TYPE = 0
CLASSIFICATION_TYPE = U
NORAD_CAT_ID   = 20511
ELEMENT_SET_NO = 999
REV_AT_EPOCH   = 91244
BSTAR          = .10962107E-3
MEAN_MOTION_DOT = .895E-5
MEAN_MOTION_DDOT = 0

CCSDS_OMM_VERS = 2.0
CREATION_DATE  = 
ORIGINATOR     = 

OBJECT_NAME    = HST
OBJECT_ID      = 1990-037B
CENTER_NAME    = EARTH
REF_FRAME      = TEME
TIME_SYSTEM    = UTC
MEAN_ELEMENT_THEORY = SGP/SGP4

EPOCH          = 2025-12-31T01:52:04.945728
MEAN_MOTION    = 15.28303086
ECCENTRICITY   = .00026135
INCLINATION    = 28.4654
RA_OF_ASC_NODE = 147.6437
ARG_OF_PERICENTER = 77.2638
MEAN_ANOMALY   = 282.8249

EPHEMERIS_TYPE = 0
CLASSIFICATION_TYPE = U
NORAD_CAT_ID   = 20580
ELEMENT_SET_NO = 999
REV_AT_EPOCH   = 76280
BSTAR          = .37137335E-3
MEAN_MOTION_DOT = .10772E-3
MEAN_MOTION_DDOT = 0

CCSDS_OMM_VERS = 2.0
CREATION_DATE  = 
ORIGINATOR     = 

OBJECT_NAME    = SL-16 R/B
OBJECT_ID      = 1990-046B
CENTER_NAME    = EARTH
REF_FRAME      = TEME
TIME_SYSTEM    = UTC
MEAN_ELEMENT_THEORY = SGP/SGP4

EPOCH          = 2025-12-31T06:24:58.557024
MEAN_MOTION    = 14.14998577
ECCENTRICITY   = .00125706
INCLINATION    = 70.9992
RA_OF_ASC_NODE = 81.6129
ARG_OF_PERICENTER = 41.8942
MEAN_ANOMALY   = 318.3140

EPHEMERIS_TYPE = 0
CLASSIFICATION_TYPE = U
NORAD_CAT_ID   = 20625
ELEMENT_SET_NO = 999
REV_AT_EPOCH   = 83871
BSTAR          = .12256787E-3
MEAN_MOTION_DOT = .19E-5
MEAN_MOTION_DDOT = 0

CCSDS_OMM_VERS = 2.0
CREATION_DATE  = 
ORIGINATOR     = 

OBJECT_NAME    = COSMOS 2084
OBJECT_ID      = 1990-055A
CENTER_NAME    = EARTH
REF_FRAME      = TEME
TIME_SYSTEM    = UTC
MEAN_ELEMENT_THEORY = SGP/SGP4

EPOCH          = 2025-12-30T23:19:32.960064
MEAN_MOTION    = 15.05137921
ECCENTRICITY   = .00287247
INCLINATION    = 62.7892
RA_OF_ASC_NODE = 209.8650
ARG_OF_PERICENTER = 177.3412
MEAN_ANOMALY   = 182.7847

EPHEMERIS_TYPE = 0
CLASSIFICATION_TYPE = U
NORAD_CAT_ID   = 20663
ELEMENT_SET_NO = 999
REV_AT_EPOCH   = 92597
BSTAR          = .37023428E-3
MEAN_MOTION_DOT = .5146E-4
MEAN_MOTION_DDOT = 0

CCSDS_OMM_VERS = 2.0
CREATION_DATE  = 
ORIGINATOR     = 

OBJECT_NAME    = SL-6 R/B(2)
OBJECT_ID      = 1990-055D
CENTER_NAME    = EARTH
REF_FRAME      = TEME
TIME_SYSTEM    = UTC
MEAN_ELEMENT_THEORY = SGP/SGP4

EPOCH          = 2025-12-30T17:30:25.156512
MEAN_MOTION    = 15.03173633
ECCENTRICITY   = .00148675
INCLINATION    = 62.7833
RA_OF_ASC_NODE = 128.2850
ARG_OF_PERICENTER = 320.7726
MEAN_ANOMALY   = 39.2295

EPHEMERIS_TYPE = 0
CLASSIFICATION_TYPE = U
NORAD_CAT_ID   = 20666
ELEMENT_SET_NO = 999
REV_AT_EPOCH   = 92782
BSTAR          = .32539954E-3
MEAN_MOTION_DOT = .4234E-4
MEAN_MOTION_DDOT = 0

CCSDS_OMM_VERS = 2.0
CREATION_DATE  = 
ORIGINATOR     = 

OBJECT_NAME    = SL-8 R/B
OBJECT_ID      = 1990-078B
CENTER_NAME    = EARTH
REF_FRAME      = TEME
TIME_SYSTEM    = UTC
MEAN_ELEMENT_THEORY = SGP/SGP4

EPOCH          = 2025-12-31T05:53:11.095584
MEAN_MOTION    = 14.86599483
ECCENTRICITY   = .03695047
INCLINATION    = 82.9056
RA_OF_ASC_NODE = 312.7376
ARG_OF_PERICENTER = 243.5673
MEAN_ANOMALY   = 112.7195

EPHEMERIS_TYPE = 0
CLASSIFICATION_TYPE = U
NORAD_CAT_ID   = 20775
ELEMENT_SET_NO = 999
REV_AT_EPOCH   = 79912
BSTAR          = .59780623E-3
MEAN_MOTION_DOT = .19443E-3
MEAN_MOTION_DDOT = 0

CCSDS_OMM_VERS = 2.0
CREATION_DATE  = 
ORIGINATOR     = 

OBJECT_NAME    = SL-8 R/B
OBJECT_ID      = 1991-006B
CENTER_NAME    = EARTH
REF_FRAME      = TEME
TIME_SYSTEM    = UTC
MEAN_ELEMENT_THEORY = SGP/SGP4

EPOCH          = 2025-12-31T03:19:47.880768
MEAN_MOTION    = 13.77492806
ECCENTRICITY   = .00215063
INCLINATION    = 82.9409
RA_OF_ASC_NODE = 221.0270
ARG_OF_PERICENTER = 225.2661
MEAN_ANOMALY   = 249.5693

EPHEMERIS_TYPE = 0
CLASSIFICATION_TYPE = U
NORAD_CAT_ID   = 21088
ELEMENT_SET_NO = 999
REV_AT_EPOCH   = 75463
BSTAR          = .4672024E-4
MEAN_MOTION_DOT = .62E-6
MEAN_MOTION_DDOT = 0

CCSDS_OMM_VERS = 2.0
CREATION_DATE  = 
ORIGINATOR     = 

OBJECT_NAME    = OKEAN-3
OBJECT_ID      = 1991-039A
CENTER_NAME    = EARTH
REF_FRAME      = TEME
TIME_SYSTEM    = UTC
MEAN_ELEMENT_THEORY = SGP/SGP4

EPOCH          = 2025-12-31T04:12:59.384448
MEAN_MOTION    = 15.04242747
ECCENTRICITY   = .00137827
INCLINATION    = 82.5162
RA_OF_ASC_NODE = 43.2003
ARG_OF_PERICENTER = 196.7412
MEAN_ANOMALY   = 163.3362

EPHEMERIS_TYPE = 0
CLASSIFICATION_TYPE = U
NORAD_CAT_ID   = 21397
ELEMENT_SET_NO = 999
REV_AT_EPOCH   = 85473
BSTAR          = .37048297E-3
MEAN_MOTION_DOT = .5187E-4
MEAN_MOTION_DDOT = 0

CCSDS_OMM_VERS = 2.0
CREATION_DATE  = 
ORIGINATOR     = 

OBJECT_NAME    = COSMOS 2151
OBJECT_ID      = 1991-042A
CENTER_NAME    = EARTH
REF_FRAME      = TEME
TIME_SYSTEM    = UTC
MEAN_ELEMENT_THEORY = SGP/SGP4

EPOCH          = 2025-12-31T05:43:08.016672
MEAN_MOTION    = 14.99773681
ECCENTRICITY   = .00113258
INCLINATION    = 82.4967
RA_OF_ASC_NODE = 149.6760
ARG_OF_PERICENTER = 292.9665
MEAN_ANOMALY   = 67.0363

EPHEMERIS_TYPE = 0
CLASSIFICATION_TYPE = U
NORAD_CAT_ID   = 21422
ELEMENT_SET_NO = 999
REV_AT_EPOCH   = 85293
BSTAR          = .30172814E-3
MEAN_MOTION_DOT = .3759E-4
MEAN_MOTION_DDOT = 0

